NOAA 17 DEB             
1 49491U 02032DV  22181.85753489  .00003531  00000+0  97429-3 0  9992
2 49491  98.7438 146.0217 0080105 335.4607  24.2780 14.45586965 67561
GAOFEN 11-3             
1 49492U 21107A   22182.28145839  .00002924  00000+0  12624-3 0  9998
2 49492  97.4231 241.0828 0003697 344.9954  79.9820 15.23300639 34323
ASTRA SATELLITE 00001   
1 49494U 21108A   22182.20051037  .00007678  00000+0  20800-3 0  9995
2 49494  86.0044  68.1740 0042485 161.9059 198.3717 15.36503692 34142
GAOFEN 3-02             
1 49495U 21109A   22182.16906573 -.00000121  00000+0 -23465-4 0  9995
2 49495  98.4116 189.3743 0001286  89.6334 270.5009 14.42212978 31745
CZ-4C R/B               
1 49496U 21109B   22181.79103205  .00000276  00000+0  47296-4 0  9992
2 49496  98.3823 198.9187 0124360  74.9099 286.5827 14.72187728 32330
SHIYAN 11 (SY-11)       
1 49501U 21112A   22182.15686797  .00003052  00000+0  12511-3 0  9992
2 49501  97.4490 191.2820 0010006 211.4591 213.9144 15.24994982 33235
COSMOS 2552             
1 49503U 21113A   22181.88076477 -.00001195  00000+0  00000+0 0  9995
2 49503  63.7360   4.9931 6995140 270.0270  17.8512  2.00682163  4372
FREGAT R/B              
1 49504U 21113B   22165.98074222 -.00001455  00000+0  00000+0 0  9994
2 49504  63.8585   6.7868 6983657 269.8706  17.0302  2.01605714  4065
CHINASAT 1D (ZX 1D)     
1 49505U 21114A   22181.99266155 -.00000327  00000+0  00000+0 0  9990
2 49505   1.4406 279.1522 0002959 192.0930 295.2789  1.00270211  2319
CZ-3B R/B               
1 49506U 21114B   22182.17068982  .00987128 -18473-6  62709-3 0  9991
2 49506  26.6326 156.5112 5123717  80.8845 331.3994  5.62933286  7611
RESURS O1 DEB           
1 49507U 94074GB  22181.89162743  .00011143  00000+0  10923-2 0  9999
2 49507  97.8841 233.3567 0003685 170.5264 189.6025 14.92409299 42938
RESURS O1 DEB           
1 49508U 94074GC  22182.08764955  .00002872  00000+0  34210-3 0  9990
2 49508  97.8940 231.8610 0000512 263.4325  96.6831 14.85104227 43003
RESURS O1 DEB           
1 49509U 94074GD  22181.60583736  .00006580  00000+0  66835-3 0  9992
2 49509  97.8969 234.5103 0005827 200.1899 159.9089 14.91148987 43040
RESURS O1 DEB           
1 49510U 94074GE  22181.59470103  .00012689  00000+0  11617-2 0  9999
2 49510  97.8985 235.0303 0001604 123.0295 237.1080 14.95089770 45084
RESURS O1 DEB           
1 49511U 94074GF  22180.88082431  .00016450  00000+0  14859-2 0  9995
2 49511  97.8717 232.6820 0001144 215.2324 144.8821 14.95556828 45182
RESURS O1 DEB           
1 49512U 94074GG  22181.08422191  .00016354  00000+0  15881-2 0  9999
2 49512  97.9067 233.1682 0009540  90.2817 269.9495 14.92661975 45026
RESURS O1 DEB           
1 49513U 94074GH  22181.39696476  .00006213  00000+0  60032-3 0  9995
2 49513  97.8674 233.4259 0004071 254.3702 105.7068 14.93173524 44901
RESURS O1 DEB           
1 49514U 94074GJ  22181.96077572  .00003852  00000+0  44397-3 0  9991
2 49514  97.9041 232.3528 0003436  56.7154 303.4390 14.86271433 44924
RESURS O1 DEB           
1 49515U 94074GK  22181.94222736  .00007472  00000+0  74457-3 0  9996
2 49515  97.8971 234.0195 0008558 164.1473 196.0015 14.91856938 45132
COSMOS 1408 DEB         
1 49516U 82092D   22182.20349602  .01490019  13075-2  26702-2 0  9998
2 49516  82.5929 252.2825 0011331 298.3320  61.6815 16.01911032 35137
COSMOS 1408 DEB         
1 49522U 82092K   22181.67020407  .00033135  00000+0  62718-3 0  9994
2 49522  82.5748 254.3062 0005288 322.5685  37.5197 15.48204230 34855
COSMOS 1408 DEB         
1 49523U 82092L   22181.65858645  .00075064  00000+0  80182-3 0  9998
2 49523  82.6078 253.0079 0028637 224.5605 135.3352 15.63113881 35021
COSMOS 1408 DEB         
1 49524U 82092M   22182.17988247  .00007105  00000+0  23030-3 0  9999
2 49524  82.5146 254.5708 0027610 320.1221  39.7990 15.31427970 34722
COSMOS 1408 DEB         
1 49525U 82092N   22181.65605346  .00044135  00000+0  69593-3 0  9996
2 49525  82.4965 253.2782 0069071 269.1429  90.1907 15.50571677 34744
COSMOS 1408 DEB         
1 49527U 82092Q   22181.78845699  .00008273  00000+0  10523-2 0  9990
2 49527  82.3980 288.3195 0518290 110.0753 255.6973 14.16952946 32163
COSMOS 1408 DEB         
1 49528U 82092R   22182.05628496  .00050139  00000+0  32838-2 0  9997
2 49528  82.9709 295.0631 0423654 105.8380 258.9943 14.55467531 32859
COSMOS 1408 DEB         
1 49529U 82092S   22181.96475434  .00006280  00000+0  49482-3 0  9991
2 49529  82.3578 266.8482 0238070  60.0106 302.4503 14.80825897 33558
COSMOS 1408 DEB         
1 49530U 82092T   22181.73804528  .00012912  00000+0  52095-3 0  9991
2 49530  83.4003 288.9528 0095170  13.6120 346.7649 15.20486838 34324
COSMOS 1408 DEB         
1 49531U 82092U   22181.74441808  .00026090  00000+0  67503-3 0  9993
2 49531  82.8692 268.0465 0079621  43.3255 317.4211 15.35658667 34588
COSMOS 1408 DEB         
1 49533U 82092W   22181.84943290  .00043833  00000+0  11768-2 0  9993
2 49533  82.5423 259.6764 0073451 329.3954  30.3012 15.34983122 34468
