OBJECT_NAME,OBJECT_ID,EPOCH,MEAN_MOTION,ECCENTRICITY,INCLINATION,RA_OF_ASC_NODE,ARG_OF_PERICENTER,MEAN_ANOMALY,EPHEMERIS_TYPE,CLASSIFICATION_TYPE,NORAD_CAT_ID,ELEMENT_SET_NO,REV_AT_EPOCH,BSTAR,MEAN_MOTION_DOT,MEAN_MOTION_DDOT
NOAA 17 DEB,2002-032DV,2022-06-30T20:34:51.014496,14.45586965,.0080105,98.7438,146.0217,335.4607,24.2780,0,U,49491,999,6756,.97429E-3,.3531E-4,0
GAOFEN 11-3,2021-107A,2022-07-01T06:45:18.004896,15.23300639,.0003697,97.4231,241.0828,344.9954,79.9820,0,U,49492,999,3432,.12624E-3,.2924E-4,0
ASTRA SATELLITE 00001,2021-108A,2022-07-01T04:48:44.095968,15.36503692,.0042485,86.0044,68.1740,161.9059,198.3717,0,U,49494,999,3414,.208E-3,.7678E-4,0
GAOFEN 3-02,2021-109A,2022-07-01T04:03:27.279072,14.42212978,.0001286,98.4116,189.3743,89.6334,270.5009,0,U,49495,999,3174,-.23465E-4,-.121E-5,0
CZ-4C R/B,2021-109B,2022-06-30T18:59:05.169120,14.72187728,.012436,98.3823,198.9187,74.9099,286.5827,0,U,49496,999,3233,.47296E-4,.276E-5,0
SHIYAN 11 (SY-11),2021-112A,2022-07-01T03:45:53.392608,15.24994982,.0010006,97.4490,191.2820,211.4591,213.9144,0,U,49501,999,3323,.12511E-3,.3052E-4,0
COSMOS 2552,2021-113A,2022-06-30T21:08:18.076128,2.00682163,.699514,63.7360,4.9931,270.0270,17.8512,0,U,49503,999,437,0,-.1195E-4,0
FREGAT R/B,2021-113B,2022-06-14T23:32:16.127808,2.01605714,.6983657,63.8585,6.7868,269.8706,17.0302,0,U,49504,999,406,0,-.1455E-4,0
CHINASAT 1D (ZX 1D),2021-114A,2022-06-30T23:49:25.957920,1.00270211,.0002959,1.4406,279.1522,192.0930,295.2789,0,U,49505,999,231,0,-.327E-5,0
CZ-3B R/B,2021-114B,2022-07-01T04:05:47.600448,5.62933286,.5123717,26.6326,156.5112,80.8845,331.3994,0,U,49506,999,761,.62709E-3,.987128E-2,-.18473E-6
RESURS O1 DEB,1994-074GB,2022-06-30T21:23:56.609952,14.92409299,.0003685,97.8841,233.3567,170.5264,189.6025,0,U,49507,999,4293,.10923E-2,.11143E-3,0
RESURS O1 DEB,1994-074GC,2022-07-01T02:06:12.921120,14.85104227,.0000512,97.8940,231.8610,263.4325,96.6831,0,U,49508,999,4300,.3421E-3,.2872E-4,0
RESURS O1 DEB,1994-074GD,2022-06-30T14:32:24.347904,14.91148987,.0005827,97.8969,234.5103,200.1899,159.9089,0,U,49509,999,4304,.66835E-3,.658E-4,0
RESURS O1 DEB,1994-074GE,2022-06-30T14:16:22.168992,14.95089770,.0001604,97.8985,235.0303,123.0295,237.1080,0,U,49510,999,4508,.11617E-2,.12689E-3,0
RESURS O1 DEB,1994-074GF,2022-06-29T21:08:23.220384,14.95556828,.0001144,97.8717,232.6820,215.2324,144.8821,0,U,49511,999,4518,.14859E-2,.1645E-3,0
RESURS O1 DEB,1994-074GG,2022-06-30T02:01:16.773024,14.92661975,.000954,97.9067,233.1682,90.2817,269.9495,0,U,49512,999,4502,.15881E-2,.16354E-3,0
RESURS O1 DEB,1994-074GH,2022-06-30T09:31:37.755264,14.93173524,.0004071,97.8674,233.4259,254.3702,105.7068,0,U,49513,999,4490,.60032E-3,.6213E-4,0
RESURS O1 DEB,1994-074GJ,2022-06-30T23:03:31.022208,14.86271433,.0003436,97.9041,232.3528,56.7154,303.4390,0,U,49514,999,4492,.44397E-3,.3852E-4,0
RESURS O1 DEB,1994-074GK,2022-06-30T22:36:48.443904,14.91856938,.0008558,97.8971,234.0195,164.1473,196.0015,0,U,49515,999,4513,.74457E-3,.7472E-4,0
COSMOS 1408 DEB,1982-092D,2022-07-01T04:53:02.056128,16.01911032,.0011331,82.5929,252.2825,298.3320,61.6815,0,U,49516,999,3513,.26702E-2,.1490019E-1,.13075E-2
COSMOS 1408 DEB,1982-092K,2022-06-30T16:05:05.631648,15.48204230,.0005288,82.5748,254.3062,322.5685,37.5197,0,U,49522,999,3485,.62718E-3,.33135E-3,0
COSMOS 1408 DEB,1982-092L,2022-06-30T15:48:21.869280,15.63113881,.0028637,82.6078,253.0079,224.5605,135.3352,0,U,49523,999,3502,.80182E-3,.75064E-3,0
COSMOS 1408 DEB,1982-092M,2022-07-01T04:19:01.845408,15.31427970,.002761,82.5146,254.5708,320.1221,39.7990,0,U,49524,999,3472,.2303E-3,.7105E-4,0
COSMOS 1408 DEB,1982-092N,2022-06-30T15:44:43.018944,15.50571677,.0069071,82.4965,253.2782,269.1429,90.1907,0,U,49525,999,3474,.69593E-3,.44135E-3,0
COSMOS 1408 DEB,1982-092Q,2022-06-30T18:55:22.683936,14.16952946,.051829,82.3980,288.3195,110.0753,255.6973,0,U,49527,999,3216,.10523E-2,.8273E-4,0
COSMOS 1408 DEB,1982-092R,2022-07-01T01:21:03.020544,14.55467531,.0423654,82.9709,295.0631,105.8380,258.9943,0,U,49528,999,3285,.32838E-2,.50139E-3,0
COSMOS 1408 DEB,1982-092S,2022-06-30T23:09:14.774976,14.80825897,.023807,82.3578,266.8482,60.0106,302.4503,0,U,49529,999,3355,.49482E-3,.628E-4,0
COSMOS 1408 DEB,1982-092T,2022-06-30T17:42:47.112192,15.20486838,.009517,83.4003,288.9528,13.6120,346.7649,0,U,49530,999,3432,.52095E-3,.12912E-3,0
COSMOS 1408 DEB,1982-092U,2022-06-30T17:51:57.722112,15.35658667,.0079621,82.8692,268.0465,43.3255,317.4211,0,U,49531,999,3458,.67503E-3,.2609E-3,0
COSMOS 1408 DEB,1982-092W,2022-06-30T20:23:11.002560,15.34983122,.0073451,82.5423,259.6764,329.3954,30.3012,0,U,49533,999,3446,.11768E-2,.43833E-3,0
